{
  "62770": {
    "noradId": "62770",
    "tle": [
      "1 62770C 25015N   26010.80326389 -.00002743  00000+0 -92440-4 0   107",
      "2 62770  53.1586 231.0043 0001389  85.5660 255.3119 15.30197162    18"
    ]
  },
  "62771": {
    "noradId": "62771",
    "tle": [
      "1 62771C 25015P   26010.80256944 -.00013541  00000+0 -45630-3 0   103",
      "2 62771  53.1578 231.1067 0001295  84.4044 200.2832 15.30211215    14"
    ]
  },
  "62772": {
    "noradId": "62772",
    "tle": [
      "1 62772C 25015Q   26010.80534722 -.00001701  00000+0 -57332-4 0   105",
      "2 62772  53.1585 231.5290 0001418  87.3602 351.6274 15.30196037    19"
    ]
  },
  "62773": {
    "noradId": "62773",
    "tle": [
      "1 62773C 25015R   26010.80395833  .00005726  00000+0  19296-3 0   109",
      "2 62773  53.1567 231.2257 0001131  94.1350 134.2267 15.30188851    10"
    ]
  },
  "62774": {
    "noradId": "62774",
    "tle": [
      "1 62774C 25015S   26010.80395833 -.00000652  00000+0 -21962-4 0   109",
      "2 62774  53.1573 231.1497 0001278  91.2870 177.7999 15.30194957    18"
    ]
  },
  "62775": {
    "noradId": "62775",
    "tle": [
      "1 62775C 25015T   26010.80673611 -.00002925  00000+0 -98568-4 0   104",
      "2 62775  53.1566 231.4117 0001364  91.3220  53.4849 15.30193993    12"
    ]
  },
  "62776": {
    "noradId": "62776",
    "tle": [
      "1 62776C 25015U   26010.80812500  .00004118  00000+0  13877-3 0   100",
      "2 62776  53.1575 231.1165 0001225  86.6913 211.1715 15.30193122    14"
    ]
  },
  "62777": {
    "noradId": "62777",
    "tle": [
      "1 62777C 25015V   26010.80395833  .00007534  00000+0  25411-3 0   108",
      "2 62777  53.1566 231.3881 0000966  82.8013  64.1410 15.30161171    19"
    ]
  },
  "62778": {
    "noradId": "62778",
    "tle": [
      "1 62778C 25015W   26010.80534722 -.00004431  00000+0 -14933-3 0   103",
      "2 62778  53.1581 231.0585 0001325  84.3215 233.1455 15.30196199    11"
    ]
  },
  "62779": {
    "noradId": "62779",
    "tle": [
      "1 62779C 25015X   26010.80812500 -.00007865  00000+0 -26506-3 0   100",
      "2 62779  53.1566 231.3011 0001308  93.5490 111.2575 15.30200876    17"
    ]
  },
  "62780": {
    "noradId": "62780",
    "tle": [
      "1 62780C 25015Y   26010.80256944 -.00007084  00000+0 -23872-3 0   102",
      "2 62780  53.1576 231.1176 0001325  88.3193 190.5669 15.30202135    15"
    ]
  },
  "62781": {
    "noradId": "62781",
    "tle": [
      "1 62781C 25015Z   26010.80604167 -.00005620  00000+0 -18940-3 0   101",
      "2 62781  53.1565 229.1350 0001424  94.4460  90.2176 15.30197857    13"
    ]
  },
  "62782": {
    "noradId": "62782",
    "tle": [
      "1 62782C 25015AA  26010.80395833 -.00010959  00000+0 -36896-3 0   100",
      "2 62782  53.1590 230.9637 0001373  87.8898 274.2542 15.30236468    17"
    ]
  },
  "62783": {
    "noradId": "62783",
    "tle": [
      "1 62783C 25015AB  26010.80604167  .00008007  00000+0  26990-3 0   107",
      "2 62783  53.1569 231.2052 0001102  87.8343 157.8243 15.30179928    15"
    ]
  },
  "62784": {
    "noradId": "62784",
    "tle": [
      "1 62784C 25015AC  26010.80465278 -.00002418  00000+0 -81479-4 0   102",
      "2 62784  53.1586 231.5416 0001372  88.4321 340.9087 15.30196885    16"
    ]
  },
  "62806": {
    "noradId": "62806",
    "tle": [
      "1 62806C 25018A   26010.80743056 -.00002125  00000+0 -71615-4 0   109",
      "2 62806  53.1578 218.3754 0001297  91.2923  48.9952 15.30193573    13"
    ]
  },
  "62807": {
    "noradId": "62807",
    "tle": [
      "1 62807C 25018B   26010.80604167 -.00004723  00000+0 -15917-3 0   107",
      "2 62807  53.1581 218.3670 0001307  90.0009  48.4525 15.30196686    18"
    ]
  },
  "62808": {
    "noradId": "62808",
    "tle": [
      "1 62808C 25018C   26010.80673611 -.00001214  00000+0 -40907-4 0   108",
      "2 62808  53.1573 218.4197 0001345  89.9462  23.2462 15.30195017    15"
    ]
  },
  "62809": {
    "noradId": "62809",
    "tle": [
      "1 62809C 25018D   26010.80534722 -.00003823  00000+0 -12885-3 0   109",
      "2 62809  53.1583 218.3477 0001310  88.6880  57.5692 15.30197069    13"
    ]
  },
  "62810": {
    "noradId": "62810",
    "tle": [
      "1 62810C 25018E   26010.80604167 -.00002653  00000+0 -89410-4 0   101",
      "2 62810  53.1577 218.4025 0001269  87.5297  33.4777 15.30191730    17"
    ]
  },
  "62811": {
    "noradId": "62811",
    "tle": [
      "1 62811C 25018F   26010.80673611  .00000809  00000+0  27278-4 0   105",
      "2 62811  53.1589 218.2006 0001368  88.3163 135.3953 15.30192014    13"
    ]
  },
  "62812": {
    "noradId": "62812",
    "tle": [
      "1 62812C 25018G   26010.80812500 -.00002771  00000+0 -93384-4 0   101",
      "2 62812  53.1586 218.3116 0001306  88.3509  90.6609 15.30192358    12"
    ]
  },
  "62813": {
    "noradId": "62813",
    "tle": [
      "1 62813C 25018H   26010.80743056 -.00003352  00000+0 -11297-3 0   109",
      "2 62813  53.1591 218.1637 0001448  86.1962 158.7935 15.30195019    16"
    ]
  },
  "62814": {
    "noradId": "62814",
    "tle": [
      "1 62814C 25018J   26010.80465278  .00008426  00000+0  28382-3 0   105",
      "2 62814  53.1563 218.5787 0001351  92.7386 293.2326 15.30202764    17"
    ]
  },
  "62815": {
    "noradId": "62815",
    "tle": [
      "1 62815C 25018K   26010.80534722 -.00005951  00000+0 -20056-3 0   109",
      "2 62815  53.1588 218.2428 0001308  86.2543 112.3464 15.30200143    12"
    ]
  },
  "62816": {
    "noradId": "62816",
    "tle": [
      "1 62816C 25018L   26010.80812500  .00000530  00000+0  17876-4 0   106",
      "2 62816  53.1571 218.4839 0001215  84.1303   1.8240 15.30193489    19"
    ]
  },
  "62817": {
    "noradId": "62817",
    "tle": [
      "1 62817C 25018M   26010.80673611 -.00002172  00000+0 -73211-4 0   106",
      "2 62817  53.1589 218.2564 0001335  88.9815 105.6496 15.30195799    17"
    ]
  },
  "62818": {
    "noradId": "62818",
    "tle": [
      "1 62818C 25018N   26010.80534722 -.00006577  00000+0 -22164-3 0   109",
      "2 62818  53.1589 218.1945 0001342  69.9872 151.8805 15.30201247    13"
    ]
  },
  "62819": {
    "noradId": "62819",
    "tle": [
      "1 62819C 25018P   26010.80881944 -.00000507  00000+0 -17091-4 0   102",
      "2 62819  53.1572 218.4335 0001301  88.3622  24.6899 15.30193437    16"
    ]
  },
  "62820": {
    "noradId": "62820",
    "tle": [
      "1 62820C 25018Q   26010.80673611 -.00006509  00000+0 -21937-3 0   105",
      "2 62820  53.1568 218.4735 0001222  87.2328 356.8818 15.30198974    12"
    ]
  },
  "62821": {
    "noradId": "62821",
    "tle": [
      "1 62821C 25018R   26010.80326389 -.00003375  00000+0 -11374-3 0   105",
      "2 62821  53.1582 218.3421 0001106  97.8590  42.7266 15.30200744    16"
    ]
  },
  "62822": {
    "noradId": "62822",
    "tle": [
      "1 62822C 25018S   26010.80604167 -.00002620  00000+0 -88301-4 0   106",
      "2 62822  53.1576 218.4108 0001303  91.0334  24.1581 15.30192574    19"
    ]
  },
  "62823": {
    "noradId": "62823",
    "tle": [
      "1 62823C 25018T   26010.80187500 -.00000162  00000+0 -54657-5 0   101",
      "2 62823  53.1589 218.2445 0001290  87.4528  97.8369 15.30190052    15"
    ]
  },
  "62824": {
    "noradId": "62824",
    "tle": [
      "1 62824C 25018U   26010.80743056  .00008508  00000+0  28673-3 0   103",
      "2 62824  53.1567 218.5420 0001300  96.8615 316.0970 15.30183990    18"
    ]
  },
  "62825": {
    "noradId": "62825",
    "tle": [
      "1 62825C 25018V   26010.80743056  .00009407  00000+0  31719-3 0   108",
      "2 62825  53.1585 215.8619 0001344  87.0400 242.2740 15.30166506    10"
    ]
  },
  "62826": {
    "noradId": "62826",
    "tle": [
      "1 62826C 25018W   26010.80881944 -.00002218  00000+0 -74751-4 0   107",
      "2 62826  53.1572 218.4630 0001200  89.1284  18.0778 15.30198955    16"
    ]
  },
  "62828": {
    "noradId": "62828",
    "tle": [
      "1 62828C 25018Y   26010.80395833 -.00005968  00000+0 -20113-3 0   103",
      "2 62828  53.1566 215.6402 0001263  92.0849 340.2570 15.30199843    13"
    ]
  },
  "62829": {
    "noradId": "62829",
    "tle": [
      "1 62829C 25019A   26010.83937500 -.00005413  00000+0 -42046-4 0   106",
      "2 62829  43.0002 294.3988 0001636 265.5898 165.9573 15.70840408    14"
    ]
  },
  "62830": {
    "noradId": "62830",
    "tle": [
      "1 62830C 25019B   26010.83937500  .00017884  00000+0  13907-3 0   104",
      "2 62830  43.0002 294.6973 0001602 276.7496  34.6366 15.70793047    12"
    ]
  },
  "62831": {
    "noradId": "62831",
    "tle": [
      "1 62831C 25019C   26010.83520833 -.00005715  00000+0 -44390-4 0   105",
      "2 62831  43.0002 295.1704 0001647 259.6607 207.6849 15.70841693    13"
    ]
  },
  "62832": {
    "noradId": "62832",
    "tle": [
      "1 62832C 25019D   26010.84006944 -.00007854  00000+0 -61006-4 0   108",
      "2 62832  43.0000 294.9170 0001782 246.2766 338.7698 15.70842623    16"
    ]
  },
  "62833": {
    "noradId": "62833",
    "tle": [
      "1 62833C 25019E   26010.83590278 -.00018166  00000+0 -14111-3 0   108",
      "2 62833  43.0001 295.0162 0001512 258.2659 273.1226 15.70853942    11"
    ]
  },
  "62834": {
    "noradId": "62834",
    "tle": [
      "1 62834C 25019F   26010.84006944 -.00023931  00000+0 -18613-3 0   109",
      "2 62834  43.0000 294.4672 0001538 272.8577 132.6490 15.70829667    18"
    ]
  },
  "62835": {
    "noradId": "62835",
    "tle": [
      "1 62835C 25019G   26010.84076389 -.00005649  00000+0 -43877-4 0   107",
      "2 62835  43.0002 295.2101 0001599 265.4377 203.3018 15.70842208    18"
    ]
  },
  "62836": {
    "noradId": "62836",
    "tle": [
      "1 62836C 25019H   26010.83798611 -.00008917  00000+0 -69266-4 0   107",
      "2 62836  43.0002 294.7779 0001579 260.6443  12.7353 15.70843693    16"
    ]
  }
}